window._tle = "PEGASUS\n1 42784U 17036V   21187.40672534  .00002215  00000-0  92683-4 0  9994\n2 42784  97.2490 235.8778 0013172 110.2457 250.0198 15.24522510224248";
